IRIDIUM 36 [-]          
1 24967U 97056C   24021.54074218  .00000802  00000+0  26624-3 0  9997
2 24967  86.3955  28.2407 0002083  92.8413 267.3023 14.36592165378596
IRIDIUM 39 [-]          
1 25042U 97069D   24021.51992585  .00001150  00000+0  30613-3 0  9999
2 25042  86.3887  70.7433 0017204 211.0040 149.0150 14.47638598375012
IRIDIUM 38 [-]          
1 25043U 97069E   24021.24649794  .00000823  00000+0  27102-3 0  9996
2 25043  86.3941  88.8375 0002838  49.8005 310.3440 14.37063421372269
IRIDIUM 42 [-]          
1 25077U 97077A   24021.26397541  .00000738  00000+0  25072-3 0  9993
2 25077  86.3950  94.3771 0002100  74.6681 285.4747 14.35358465367591
IRIDIUM 44 [-]          
1 25078U 97077B   24021.20025487  .00000834  00000+0  26324-3 0  9993
2 25078  86.3928  77.6955 0000311  84.1103 276.0131 14.39171608369896
IRIDIUM 45 [-]          
1 25104U 97082A   24021.26921332  .00017346  00000+0  10564-2 0  9993
2 25104  86.3752 291.4510 0174823  56.3199 305.4564 14.98304998374674
IRIDIUM 24 [-]          
1 25105U 97082B   24021.26224905  .00001111  00000+0  33991-3 0  9999
2 25105  86.3919 297.5179 0010812 342.0607  18.0209 14.40946938369326
IRIDIUM 51 [-]          
1 25262U 98018A   24021.24952232  .00025850  00000+0  13427-2 0  9999
2 25262  86.3933 301.7103 0158405   7.5190 352.8363 15.05652706369118
